STARLINK-36762          
1 67868U 26034U   26064.83334490  .00009690  00000+0  52804-4 0  9998
2 67868  53.1596 230.5237 0001433  70.0331 128.5606 15.80778918  3244
STARLINK-36779          
1 67869U 26034V   26064.83334490  .00068293  00000+0  34756-3 0  9998
2 67869  53.1598 230.5147 0001392  66.8203 135.8829 15.80825728  3242
STARLINK-36770          
1 67870U 26034W   26064.83334490 -.00022947  00000+0 -11303-3 0  9991
2 67870  53.1598 230.4968 0000625  42.6892 168.5453 15.80874614  3242
STARLINK-36769          
1 67871U 26034X   26064.83334490 -.00006690  00000+0 -30384-4 0  9990
2 67871  53.1597 230.5058 0001455  48.2075 158.7605 15.80865200  3241
STARLINK-36786          
1 67872U 26034Y   26064.83334490  .00057458  00000+0  29327-3 0  9991
2 67872  53.1597 230.4882 0001381  58.1885 157.3289 15.80831493  3243
STARLINK-36783          
1 67873U 26034Z   26064.83334490  .00029667  00000+0  15355-3 0  9999
2 67873  53.1600 230.4789 0001140  58.9265 160.8641 15.80841331  3241
STARLINK-36730          
1 67874U 26034AA  26064.83334490  .00002189  00000+0  14639-4 0  9995
2 67874  53.1597 230.4704 0001399  58.0566 165.9953 15.80861901  3242
STARLINK-36727          
1 67875U 26034AB  26064.83334490  .00034038  00000+0  17556-3 0  9994
2 67875  53.1597 230.4613 0001023  62.3432 165.9917 15.80842152  3243
STARLINK-36743          
1 67876U 26034AC  26064.83334490  .00030647  00000+0  15854-3 0  9996
2 67876  53.1600 230.4521 0000938  52.6688 179.9475 15.80834119  3244
STARLINK-36784          
1 67877U 26034AD  26064.83334490 -.00004527  00000+0 -19414-4 0  9994
2 67877  53.1600 230.4434 0001056  38.3510 198.5139 15.80867535  3247
STARLINK-36689          
1 67878U 26034AE  26064.83334490 -.00020509  00000+0 -10061-3 0  9991
2 67878  53.1598 230.4347 0001316  68.3582 172.7801 15.80871373  3243
STARLINK-36818          
1 67879U 26035A   26064.83334490 -.01019817  32549-3 -25127-2 0  9999
2 67879  97.2762 356.8734 0001209  95.3751 322.4268 15.96036177  3139
STARLINK-36821          
1 67880U 26035B   26064.83334490 -.01021448  32696-3 -24972-2 0  9994
2 67880  97.2757 356.8767 0001191  93.2349 331.6789 15.96181572  3131
STARLINK-36808          
1 67881U 26035C   26064.83334490 -.01016945  32404-3 -24961-2 0  9996
2 67881  97.2758 356.8747 0001194  83.0341 337.5274 15.96106911  3131
STARLINK-36817          
1 67882U 26035D   26064.83334490 -.01038693  33784-3 -25183-2 0  9990
2 67882  97.2748 356.8799 0001177  82.7001 350.7467 15.96337716  3138
STARLINK-36856          
1 67883U 26035E   26064.83334490 -.01024448  32901-3 -24945-2 0  9999
2 67883  97.2753 356.8783 0001083  85.2077 344.2406 15.96256485  3139
