[{"OBJECT_NAME":"STARLINK-36762","OBJECT_ID":"2026-034U","EPOCH":"2026-03-05T20:00:00.999360","MEAN_MOTION":15.80778918,"ECCENTRICITY":0.0001433,"INCLINATION":53.1596,"RA_OF_ASC_NODE":230.5237,"ARG_OF_PERICENTER":70.0331,"MEAN_ANOMALY":128.5606,"EPHEMERIS_TYPE":0,"CLASSIFICATION_TYPE":"U","NORAD_CAT_ID":67868,"ELEMENT_SET_NO":999,"REV_AT_EPOCH":324,"BSTAR":5.2804e-5,"MEAN_MOTION_DOT":9.69e-5,"MEAN_MOTION_DDOT":0},{"OBJECT_NAME":"STARLINK-36779","OBJECT_ID":"2026-034V","EPOCH":"2026-03-05T20:00:00.999360","MEAN_MOTION":15.80825728,"ECCENTRICITY":0.0001392,"INCLINATION":53.1598,"RA_OF_ASC_NODE":230.5147,"ARG_OF_PERICENTER":66.8203,"MEAN_ANOMALY":135.8829,"EPHEMERIS_TYPE":0,"CLASSIFICATION_TYPE":"U","NORAD_CAT_ID":67869,"ELEMENT_SET_NO":999,"REV_AT_EPOCH":324,"BSTAR":0.00034756,"MEAN_MOTION_DOT":0.00068293,"MEAN_MOTION_DDOT":0},{"OBJECT_NAME":"STARLINK-36770","OBJECT_ID":"2026-034W","EPOCH":"2026-03-05T20:00:00.999360","MEAN_MOTION":15.80874614,"ECCENTRICITY":6.25e-5,"INCLINATION":53.1598,"RA_OF_ASC_NODE":230.4968,"ARG_OF_PERICENTER":42.6892,"MEAN_ANOMALY":168.5453,"EPHEMERIS_TYPE":0,"CLASSIFICATION_TYPE":"U","NORAD_CAT_ID":67870,"ELEMENT_SET_NO":999,"REV_AT_EPOCH":324,"BSTAR":-0.00011303,"MEAN_MOTION_DOT":-0.00022947,"MEAN_MOTION_DDOT":0},{"OBJECT_NAME":"STARLINK-36769","OBJECT_ID":"2026-034X","EPOCH":"2026-03-05T20:00:00.999360","MEAN_MOTION":15.808652,"ECCENTRICITY":0.0001455,"INCLINATION":53.1597,"RA_OF_ASC_NODE":230.5058,"ARG_OF_PERICENTER":48.2075,"MEAN_ANOMALY":158.7605,"EPHEMERIS_TYPE":0,"CLASSIFICATION_TYPE":"U","NORAD_CAT_ID":67871,"ELEMENT_SET_NO":999,"REV_AT_EPOCH":324,"BSTAR":-3.0384e-5,"MEAN_MOTION_DOT":-6.69e-5,"MEAN_MOTION_DDOT":0},{"OBJECT_NAME":"STARLINK-36786","OBJECT_ID":"2026-034Y","EPOCH":"2026-03-05T20:00:00.999360","MEAN_MOTION":15.80831493,"ECCENTRICITY":0.0001381,"INCLINATION":53.1597,"RA_OF_ASC_NODE":230.4882,"ARG_OF_PERICENTER":58.1885,"MEAN_ANOMALY":157.3289,"EPHEMERIS_TYPE":0,"CLASSIFICATION_TYPE":"U","NORAD_CAT_ID":67872,"ELEMENT_SET_NO":999,"REV_AT_EPOCH":324,"BSTAR":0.00029327,"MEAN_MOTION_DOT":0.00057458,"MEAN_MOTION_DDOT":0},{"OBJECT_NAME":"STARLINK-36783","OBJECT_ID":"2026-034Z","EPOCH":"2026-03-05T20:00:00.999360","MEAN_MOTION":15.80841331,"ECCENTRICITY":0.000114,"INCLINATION":53.16,"RA_OF_ASC_NODE":230.4789,"ARG_OF_PERICENTER":58.9265,"MEAN_ANOMALY":160.8641,"EPHEMERIS_TYPE":0,"CLASSIFICATION_TYPE":"U","NORAD_CAT_ID":67873,"ELEMENT_SET_NO":999,"REV_AT_EPOCH":324,"BSTAR":0.00015355,"MEAN_MOTION_DOT":0.00029667,"MEAN_MOTION_DDOT":0},{"OBJECT_NAME":"STARLINK-36730","OBJECT_ID":"2026-034AA","EPOCH":"2026-03-05T20:00:00.999360","MEAN_MOTION":15.80861901,"ECCENTRICITY":0.0001399,"INCLINATION":53.1597,"RA_OF_ASC_NODE":230.4704,"ARG_OF_PERICENTER":58.0566,"MEAN_ANOMALY":165.9953,"EPHEMERIS_TYPE":0,"CLASSIFICATION_TYPE":"U","NORAD_CAT_ID":67874,"ELEMENT_SET_NO":999,"REV_AT_EPOCH":324,"BSTAR":1.4639e-5,"MEAN_MOTION_DOT":2.189e-5,"MEAN_MOTION_DDOT":0},{"OBJECT_NAME":"STARLINK-36727","OBJECT_ID":"2026-034AB","EPOCH":"2026-03-05T20:00:00.999360","MEAN_MOTION":15.80842152,"ECCENTRICITY":0.0001023,"INCLINATION":53.1597,"RA_OF_ASC_NODE":230.4613,"ARG_OF_PERICENTER":62.3432,"MEAN_ANOMALY":165.9917,"EPHEMERIS_TYPE":0,"CLASSIFICATION_TYPE":"U","NORAD_CAT_ID":67875,"ELEMENT_SET_NO":999,"REV_AT_EPOCH":324,"BSTAR":0.00017556,"MEAN_MOTION_DOT":0.00034038,"MEAN_MOTION_DDOT":0},{"OBJECT_NAME":"STARLINK-36743","OBJECT_ID":"2026-034AC","EPOCH":"2026-03-05T20:00:00.999360","MEAN_MOTION":15.80834119,"ECCENTRICITY":9.38e-5,"INCLINATION":53.16,"RA_OF_ASC_NODE":230.4521,"ARG_OF_PERICENTER":52.6688,"MEAN_ANOMALY":179.9475,"EPHEMERIS_TYPE":0,"CLASSIFICATION_TYPE":"U","NORAD_CAT_ID":67876,"ELEMENT_SET_NO":999,"REV_AT_EPOCH":324,"BSTAR":0.00015854,"MEAN_MOTION_DOT":0.00030647,"MEAN_MOTION_DDOT":0},{"OBJECT_NAME":"STARLINK-36784","OBJECT_ID":"2026-034AD","EPOCH":"2026-03-05T20:00:00.999360","MEAN_MOTION":15.80867535,"ECCENTRICITY":0.0001056,"INCLINATION":53.16,"RA_OF_ASC_NODE":230.4434,"ARG_OF_PERICENTER":38.351,"MEAN_ANOMALY":198.5139,"EPHEMERIS_TYPE":0,"CLASSIFICATION_TYPE":"U","NORAD_CAT_ID":67877,"ELEMENT_SET_NO":999,"REV_AT_EPOCH":324,"BSTAR":-1.9414e-5,"MEAN_MOTION_DOT":-4.527e-5,"MEAN_MOTION_DDOT":0},{"OBJECT_NAME":"STARLINK-36689","OBJECT_ID":"2026-034AE","EPOCH":"2026-03-05T20:00:00.999360","MEAN_MOTION":15.80871373,"ECCENTRICITY":0.0001316,"INCLINATION":53.1598,"RA_OF_ASC_NODE":230.4347,"ARG_OF_PERICENTER":68.3582,"MEAN_ANOMALY":172.7801,"EPHEMERIS_TYPE":0,"CLASSIFICATION_TYPE":"U","NORAD_CAT_ID":67878,"ELEMENT_SET_NO":999,"REV_AT_EPOCH":324,"BSTAR":-0.00010061,"MEAN_MOTION_DOT":-0.00020509,"MEAN_MOTION_DDOT":0},{"OBJECT_NAME":"STARLINK-36818","OBJECT_ID":"2026-035A","EPOCH":"2026-03-05T20:00:00.999360","MEAN_MOTION":15.96036177,"ECCENTRICITY":0.0001209,"INCLINATION":97.2762,"RA_OF_ASC_NODE":356.8734,"ARG_OF_PERICENTER":95.3751,"MEAN_ANOMALY":322.4268,"EPHEMERIS_TYPE":0,"CLASSIFICATION_TYPE":"U","NORAD_CAT_ID":67879,"ELEMENT_SET_NO":999,"REV_AT_EPOCH":313,"BSTAR":-0.0025127,"MEAN_MOTION_DOT":-0.01019817,"MEAN_MOTION_DDOT":0.00032549},{"OBJECT_NAME":"STARLINK-36821","OBJECT_ID":"2026-035B","EPOCH":"2026-03-05T20:00:00.999360","MEAN_MOTION":15.96181572,"ECCENTRICITY":0.0001191,"INCLINATION":97.2757,"RA_OF_ASC_NODE":356.8767,"ARG_OF_PERICENTER":93.2349,"MEAN_ANOMALY":331.6789,"EPHEMERIS_TYPE":0,"CLASSIFICATION_TYPE":"U","NORAD_CAT_ID":67880,"ELEMENT_SET_NO":999,"REV_AT_EPOCH":313,"BSTAR":-0.0024972,"MEAN_MOTION_DOT":-0.01021448,"MEAN_MOTION_DDOT":0.00032696},{"OBJECT_NAME":"STARLINK-36808","OBJECT_ID":"2026-035C","EPOCH":"2026-03-05T20:00:00.999360","MEAN_MOTION":15.96106911,"ECCENTRICITY":0.0001194,"INCLINATION":97.2758,"RA_OF_ASC_NODE":356.8747,"ARG_OF_PERICENTER":83.0341,"MEAN_ANOMALY":337.5274,"EPHEMERIS_TYPE":0,"CLASSIFICATION_TYPE":"U","NORAD_CAT_ID":67881,"ELEMENT_SET_NO":999,"REV_AT_EPOCH":313,"BSTAR":-0.0024961,"MEAN_MOTION_DOT":-0.01016945,"MEAN_MOTION_DDOT":0.00032404},{"OBJECT_NAME":"STARLINK-36817","OBJECT_ID":"2026-035D","EPOCH":"2026-03-05T20:00:00.999360","MEAN_MOTION":15.96337716,"ECCENTRICITY":0.0001177,"INCLINATION":97.2748,"RA_OF_ASC_NODE":356.8799,"ARG_OF_PERICENTER":82.7001,"MEAN_ANOMALY":350.7467,"EPHEMERIS_TYPE":0,"CLASSIFICATION_TYPE":"U","NORAD_CAT_ID":67882,"ELEMENT_SET_NO":999,"REV_AT_EPOCH":313,"BSTAR":-0.0025183,"MEAN_MOTION_DOT":-0.01038693,"MEAN_MOTION_DDOT":0.00033784},{"OBJECT_NAME":"STARLINK-36856","OBJECT_ID":"2026-035E","EPOCH":"2026-03-05T20:00:00.999360","MEAN_MOTION":15.96256485,"ECCENTRICITY":0.0001083,"INCLINATION":97.2753,"RA_OF_ASC_NODE":356.8783,"ARG_OF_PERICENTER":85.2077,"MEAN_ANOMALY":344.2406,"EPHEMERIS_TYPE":0,"CLASSIFICATION_TYPE":"U","NORAD_CAT_ID":67883,"ELEMENT_SET_NO":999,"REV_AT_EPOCH":313,"BSTAR":-0.0024945,"MEAN_MOTION_DOT":-0.01024448,"MEAN_MOTION_DDOT":0.00032901}]
